{
"type": "FeatureCollection",
"name": "reserve-grid",
"crs": { "type": "name", "properties": { "name": "urn:ogc:def:crs:EPSG::32734" } },
"features": [
{ "type": "Feature", "properties": { "left": 446000.0, "right": 447000.0, "top": 6183000.0, "bottom": 6182000.0, "row_index": 0.0, "col_index": 8.0, "id": "cell-0" }, "geometry": { "type": "Polygon", "coordinates": [ [ [ 447000.0, 6182000.0 ], [ 447000.0, 6183000.0 ], [ 446000.0, 6183000.0 ], [ 446000.0, 6182000.0 ], [ 447000.0, 6182000.0 ] ] ] } },
{ "type": "Feature", "properties": { "left": 447000.0, "right": 448000.0, "top": 6183000.0, "bottom": 6182000.0, "row_index": 0.0, "col_index": 9.0, "id": "cell-1" }, "geometry": { "type": "Polygon", "coordinates": [ [ [ 448000.0, 6182000.0 ], [ 448000.0, 6183000.0 ], [ 447000.0, 6183000.0 ], [ 447000.0, 6182000.0 ], [ 448000.0, 6182000.0 ] ] ] } },
{ "type": "Feature", "properties": { "left": 444000.0, "right": 445000.0, "top": 6184000.0, "bottom": 6183000.0, "row_index": 1.0, "col_index": 6.0, "id": "cell-2" }, "geometry": { "type": "Polygon", "coordinates": [ [ [ 445000.0, 6183000.0 ], [ 445000.0, 6184000.0 ], [ 444000.0, 6184000.0 ], [ 444000.0, 6183000.0 ], [ 445000.0, 6183000.0 ] ] ] } },
{ "type": "Feature", "properties": { "left": 445000.0, "right": 446000.0, "top": 6184000.0, "bottom": 6183000.0, "row_index": 1.0, "col_index": 7.0, "id": "cell-3" }, "geometry": { "type": "Polygon", "coordinates": [ [ [ 446000.0, 6183000.0 ], [ 446000.0, 6184000.0 ], [ 445000.0, 6184000.0 ], [ 445000.0, 6183000.0 ], [ 446000.0, 6183000.0 ] ] ] } },
{ "type": "Feature", "properties": { "left": 446000.0, "right": 447000.0, "top": 6184000.0, "bottom": 6183000.0, "row_index": 1.0, "col_index": 8.0, "id": "cell-4" }, "geometry": { "type": "Polygon", "coordinates": [ [ [ 447000.0, 6183000.0 ], [ 447000.0, 6184000.0 ], [ 446000.0, 6184000.0 ], [ 446000.0, 6183000.0 ], [ 447000.0, 6183000.0 ] ] ] } },
{ "type": "Feature", "properties": { "left": 447000.0, "right": 448000.0, "top": 6184000.0, "bottom": 6183000.0, "row_index": 1.0, "col_index": 9.0, "id": "cell-5" }, "geometry": { "type": "Polygon", "coordinates": [ [ [ 448000.0, 6183000.0 ], [ 448000.0, 6184000.0 ], [ 447000.0, 6184000.0 ], [ 447000.0, 6183000.0 ], [ 448000.0, 6183000.0 ] ] ] } },
{ "type": "Feature", "properties": { "left": 444000.0, "right": 445000.0, "top": 6185000.0, "bottom": 6184000.0, "row_index": 2.0, "col_index": 6.0, "id": "cell-6" }, "geometry": { "type": "Polygon", "coordinates": [ [ [ 445000.0, 6184000.0 ], [ 445000.0, 6185000.0 ], [ 444000.0, 6185000.0 ], [ 444000.0, 6184000.0 ], [ 445000.0, 6184000.0 ] ] ] } },
{ "type": "Feature", "properties": { "left": 445000.0, "right": 446000.0, "top": 6185000.0, "bottom": 6184000.0, "row_index": 2.0, "col_index": 7.0, "id": "cell-7" }, "geometry": { "type": "Polygon", "coordinates": [ [ [ 446000.0, 6184000.0 ], [ 446000.0, 6185000.0 ], [ 445000.0, 6185000.0 ], [ 445000.0, 6184000.0 ], [ 446000.0, 6184000.0 ] ] ] } },
{ "type": "Feature", "properties": { "left": 443000.0, "right": 444000.0, "top": 6186000.0, "bottom": 6185000.0, "row_index": 3.0, "col_index": 5.0, "id": "cell-8" }, "geometry": { "type": "Polygon", "coordinates": [ [ [ 444000.0, 6185000.0 ], [ 444000.0, 6186000.0 ], [ 443000.0, 6186000.0 ], [ 443000.0, 6185000.0 ], [ 444000.0, 6185000.0 ] ] ] } },
{ "type": "Feature", "properties": { "left": 444000.0, "right": 445000.0, "top": 6186000.0, "bottom": 6185000.0, "row_index": 3.0, "col_index": 6.0, "id": "cell-9" }, "geometry": { "type": "Polygon", "coordinates": [ [ [ 445000.0, 6185000.0 ], [ 445000.0, 6186000.0 ], [ 444000.0, 6186000.0 ], [ 444000.0, 6185000.0 ], [ 445000.0, 6185000.0 ] ] ] } },
{ "type": "Feature", "properties": { "left": 445000.0, "right": 446000.0, "top": 6186000.0, "bottom": 6185000.0, "row_index": 3.0, "col_index": 7.0, "id": "cell-10" }, "geometry": { "type": "Polygon", "coordinates": [ [ [ 446000.0, 6185000.0 ], [ 446000.0, 6186000.0 ], [ 445000.0, 6186000.0 ], [ 445000.0, 6185000.0 ], [ 446000.0, 6185000.0 ] ] ] } },
{ "type": "Feature", "properties": { "left": 443000.0, "right": 444000.0, "top": 6187000.0, "bottom": 6186000.0, "row_index": 4.0, "col_index": 5.0, "id": "cell-11" }, "geometry": { "type": "Polygon", "coordinates": [ [ [ 444000.0, 6186000.0 ], [ 444000.0, 6187000.0 ], [ 443000.0, 6187000.0 ], [ 443000.0, 6186000.0 ], [ 444000.0, 6186000.0 ] ] ] } },
{ "type": "Feature", "properties": { "left": 444000.0, "right": 445000.0, "top": 6187000.0, "bottom": 6186000.0, "row_index": 4.0, "col_index": 6.0, "id": "cell-12" }, "geometry": { "type": "Polygon", "coordinates": [ [ [ 445000.0, 6186000.0 ], [ 445000.0, 6187000.0 ], [ 444000.0, 6187000.0 ], [ 444000.0, 6186000.0 ], [ 445000.0, 6186000.0 ] ] ] } },
{ "type": "Feature", "properties": { "left": 443000.0, "right": 444000.0, "top": 6188000.0, "bottom": 6187000.0, "row_index": 5.0, "col_index": 5.0, "id": "cell-13" }, "geometry": { "type": "Polygon", "coordinates": [ [ [ 444000.0, 6187000.0 ], [ 444000.0, 6188000.0 ], [ 443000.0, 6188000.0 ], [ 443000.0, 6187000.0 ], [ 444000.0, 6187000.0 ] ] ] } },
{ "type": "Feature", "properties": { "left": 444000.0, "right": 445000.0, "top": 6188000.0, "bottom": 6187000.0, "row_index": 5.0, "col_index": 6.0, "id": "cell-14" }, "geometry": { "type": "Polygon", "coordinates": [ [ [ 445000.0, 6187000.0 ], [ 445000.0, 6188000.0 ], [ 444000.0, 6188000.0 ], [ 444000.0, 6187000.0 ], [ 445000.0, 6187000.0 ] ] ] } },
{ "type": "Feature", "properties": { "left": 445000.0, "right": 446000.0, "top": 6188000.0, "bottom": 6187000.0, "row_index": 5.0, "col_index": 7.0, "id": "cell-15" }, "geometry": { "type": "Polygon", "coordinates": [ [ [ 446000.0, 6187000.0 ], [ 446000.0, 6188000.0 ], [ 445000.0, 6188000.0 ], [ 445000.0, 6187000.0 ], [ 446000.0, 6187000.0 ] ] ] } },
{ "type": "Feature", "properties": { "left": 441000.0, "right": 442000.0, "top": 6189000.0, "bottom": 6188000.0, "row_index": 6.0, "col_index": 3.0, "id": "cell-16" }, "geometry": { "type": "Polygon", "coordinates": [ [ [ 442000.0, 6188000.0 ], [ 442000.0, 6189000.0 ], [ 441000.0, 6189000.0 ], [ 441000.0, 6188000.0 ], [ 442000.0, 6188000.0 ] ] ] } },
{ "type": "Feature", "properties": { "left": 442000.0, "right": 443000.0, "top": 6189000.0, "bottom": 6188000.0, "row_index": 6.0, "col_index": 4.0, "id": "cell-17" }, "geometry": { "type": "Polygon", "coordinates": [ [ [ 443000.0, 6188000.0 ], [ 443000.0, 6189000.0 ], [ 442000.0, 6189000.0 ], [ 442000.0, 6188000.0 ], [ 443000.0, 6188000.0 ] ] ] } },
{ "type": "Feature", "properties": { "left": 443000.0, "right": 444000.0, "top": 6189000.0, "bottom": 6188000.0, "row_index": 6.0, "col_index": 5.0, "id": "cell-18" }, "geometry": { "type": "Polygon", "coordinates": [ [ [ 444000.0, 6188000.0 ], [ 444000.0, 6189000.0 ], [ 443000.0, 6189000.0 ], [ 443000.0, 6188000.0 ], [ 444000.0, 6188000.0 ] ] ] } },
{ "type": "Feature", "properties": { "left": 444000.0, "right": 445000.0, "top": 6189000.0, "bottom": 6188000.0, "row_index": 6.0, "col_index": 6.0, "id": "cell-19" }, "geometry": { "type": "Polygon", "coordinates": [ [ [ 445000.0, 6188000.0 ], [ 445000.0, 6189000.0 ], [ 444000.0, 6189000.0 ], [ 444000.0, 6188000.0 ], [ 445000.0, 6188000.0 ] ] ] } },
{ "type": "Feature", "properties": { "left": 441000.0, "right": 442000.0, "top": 6190000.0, "bottom": 6189000.0, "row_index": 7.0, "col_index": 3.0, "id": "cell-20" }, "geometry": { "type": "Polygon", "coordinates": [ [ [ 442000.0, 6189000.0 ], [ 442000.0, 6190000.0 ], [ 441000.0, 6190000.0 ], [ 441000.0, 6189000.0 ], [ 442000.0, 6189000.0 ] ] ] } },
{ "type": "Feature", "properties": { "left": 442000.0, "right": 443000.0, "top": 6190000.0, "bottom": 6189000.0, "row_index": 7.0, "col_index": 4.0, "id": "cell-21" }, "geometry": { "type": "Polygon", "coordinates": [ [ [ 443000.0, 6189000.0 ], [ 443000.0, 6190000.0 ], [ 442000.0, 6190000.0 ], [ 442000.0, 6189000.0 ], [ 443000.0, 6189000.0 ] ] ] } },
{ "type": "Feature", "properties": { "left": 439000.0, "right": 440000.0, "top": 6191000.0, "bottom": 6190000.0, "row_index": 8.0, "col_index": 1.0, "id": "cell-22" }, "geometry": { "type": "Polygon", "coordinates": [ [ [ 440000.0, 6190000.0 ], [ 440000.0, 6191000.0 ], [ 439000.0, 6191000.0 ], [ 439000.0, 6190000.0 ], [ 440000.0, 6190000.0 ] ] ] } },
{ "type": "Feature", "properties": { "left": 440000.0, "right": 441000.0, "top": 6191000.0, "bottom": 6190000.0, "row_index": 8.0, "col_index": 2.0, "id": "cell-23" }, "geometry": { "type": "Polygon", "coordinates": [ [ [ 441000.0, 6190000.0 ], [ 441000.0, 6191000.0 ], [ 440000.0, 6191000.0 ], [ 440000.0, 6190000.0 ], [ 441000.0, 6190000.0 ] ] ] } },
{ "type": "Feature", "properties": { "left": 441000.0, "right": 442000.0, "top": 6191000.0, "bottom": 6190000.0, "row_index": 8.0, "col_index": 3.0, "id": "cell-24" }, "geometry": { "type": "Polygon", "coordinates": [ [ [ 442000.0, 6190000.0 ], [ 442000.0, 6191000.0 ], [ 441000.0, 6191000.0 ], [ 441000.0, 6190000.0 ], [ 442000.0, 6190000.0 ] ] ] } },
{ "type": "Feature", "properties": { "left": 438000.0, "right": 439000.0, "top": 6192000.0, "bottom": 6191000.0, "row_index": 9.0, "col_index": 0.0, "id": "cell-25" }, "geometry": { "type": "Polygon", "coordinates": [ [ [ 439000.0, 6191000.0 ], [ 439000.0, 6192000.0 ], [ 438000.0, 6192000.0 ], [ 438000.0, 6191000.0 ], [ 439000.0, 6191000.0 ] ] ] } },
{ "type": "Feature", "properties": { "left": 439000.0, "right": 440000.0, "top": 6192000.0, "bottom": 6191000.0, "row_index": 9.0, "col_index": 1.0, "id": "cell-26" }, "geometry": { "type": "Polygon", "coordinates": [ [ [ 440000.0, 6191000.0 ], [ 440000.0, 6192000.0 ], [ 439000.0, 6192000.0 ], [ 439000.0, 6191000.0 ], [ 440000.0, 6191000.0 ] ] ] } },
{ "type": "Feature", "properties": { "left": 440000.0, "right": 441000.0, "top": 6192000.0, "bottom": 6191000.0, "row_index": 9.0, "col_index": 2.0, "id": "cell-27" }, "geometry": { "type": "Polygon", "coordinates": [ [ [ 441000.0, 6191000.0 ], [ 441000.0, 6192000.0 ], [ 440000.0, 6192000.0 ], [ 440000.0, 6191000.0 ], [ 441000.0, 6191000.0 ] ] ] } },
{ "type": "Feature", "properties": { "left": 441000.0, "right": 442000.0, "top": 6192000.0, "bottom": 6191000.0, "row_index": 9.0, "col_index": 3.0, "id": "cell-28" }, "geometry": { "type": "Polygon", "coordinates": [ [ [ 442000.0, 6191000.0 ], [ 442000.0, 6192000.0 ], [ 441000.0, 6192000.0 ], [ 441000.0, 6191000.0 ], [ 442000.0, 6191000.0 ] ] ] } },
{ "type": "Feature", "properties": { "left": 438000.0, "right": 439000.0, "top": 6193000.0, "bottom": 6192000.0, "row_index": 10.0, "col_index": 0.0, "id": "cell-29" }, "geometry": { "type": "Polygon", "coordinates": [ [ [ 439000.0, 6192000.0 ], [ 439000.0, 6193000.0 ], [ 438000.0, 6193000.0 ], [ 438000.0, 6192000.0 ], [ 439000.0, 6192000.0 ] ] ] } },
{ "type": "Feature", "properties": { "left": 439000.0, "right": 440000.0, "top": 6193000.0, "bottom": 6192000.0, "row_index": 10.0, "col_index": 1.0, "id": "cell-30" }, "geometry": { "type": "Polygon", "coordinates": [ [ [ 440000.0, 6192000.0 ], [ 440000.0, 6193000.0 ], [ 439000.0, 6193000.0 ], [ 439000.0, 6192000.0 ], [ 440000.0, 6192000.0 ] ] ] } }
]
}
